2026-083F
1 68758U 26083F   26108.42330907  .00001366  00000+0  95844-4 0  9997
2 68758  96.9503 248.5710 0010094 253.4069 106.6052 15.06561479   204
