{
  "norad_id": 68758,
  "name": "2026-083F",
  "history": [
    {
      "epoch": "2026-04-18T10:09:33.903648Z",
      "apogee_km": 553.7069858259747,
      "perigee_km": 539.7263987066581,
      "latitude_deg": 3.137203336060907e-05,
      "longitude_deg": -110.36278847152434,
      "height_km": 551.8058806576374,
      "semi_major_axis_km": 6924.853692266316,
      "eccentricity": 0.00100945,
      "inclination_deg": 96.9503,
      "raan_deg": 248.571,
      "arg_perigee_deg": 253.4069,
      "mean_anomaly_deg": 106.6052,
      "mean_motion_rev_day": 15.06561479
    }
  ]
}